IRIDIUM 116             
1 43072U 17083C   25352.16568781  .00000035  00000+0  55738-5 0  9994
2 43072  86.3958  37.6636 0002574  95.4403 264.7087 14.34216567418221
IRIDIUM 130             
1 43073U 17083D   25352.20374187  .00000157  00000+0  49020-4 0  9996
2 43073  86.3972  37.9057 0002483  99.5822 260.5655 14.34219554418175
IRIDIUM 151             
1 43074U 17083E   25352.17837057  .00000100  00000+0  28509-4 0  9990
2 43074  86.3967  37.7124 0002230  93.2666 266.8785 14.34218089418197
IRIDIUM 134             
1 43075U 17083F   25352.14666104  .00000239  00000+0  78120-4 0  9998
2 43075  86.3966  37.7310 0002285  98.9034 261.2421 14.34215379418156
IRIDIUM 137             
1 43076U 17083G   25352.15934486  .00000033  00000+0  47963-5 0  9995
2 43076  86.3966  37.8147 0002648  86.8374 273.3125 14.34217371418229
IRIDIUM 141             
1 43077U 17083H   25352.22276833  .00000251  00000+0  82634-4 0  9994
2 43077  86.3962  37.6292 0002060  96.5675 263.5756 14.34218584418234
IRIDIUM 153             
1 43078U 17083J   25352.31448299  .00000131  00000+0  39758-4 0  9998
2 43078  86.3969   6.0814 0001889  96.9832 263.1578 14.34218488419354
IRIDIUM 131             
1 43079U 17083K   25352.21008312  .00000269  00000+0  88989-4 0  9998
2 43079  86.3969  37.8085 0002119  93.3202 266.8236 14.34218731418166
